[{"OBJECT_NAME":"STARLINK-35610","OBJECT_ID":"2025-259G","EPOCH":"2026-03-09T23:02:24.642816","MEAN_MOTION":15.27587366,"ECCENTRICITY":0.00023956,"INCLINATION":43.0029,"RA_OF_ASC_NODE":272.7341,"ARG_OF_PERICENTER":274.9006,"MEAN_ANOMALY":85.1572,"EPHEMERIS_TYPE":0,"CLASSIFICATION_TYPE":"U","NORAD_CAT_ID":66428,"ELEMENT_SET_NO":999,"REV_AT_EPOCH":1953,"BSTAR":0.0010125274,"MEAN_MOTION_DOT":0.00027712,"MEAN_MOTION_DDOT":0},{"OBJECT_NAME":"PUCP-SAT 1","OBJECT_ID":"2013-066AC","EPOCH":"2026-03-09T22:02:13.763904","MEAN_MOTION":15.29426022,"ECCENTRICITY":0.00136836,"INCLINATION":97.5787,"RA_OF_ASC_NODE":61.0032,"ARG_OF_PERICENTER":300.1183,"MEAN_ANOMALY":59.87,"EPHEMERIS_TYPE":0,"CLASSIFICATION_TYPE":"U","NORAD_CAT_ID":39442,"ELEMENT_SET_NO":999,"REV_AT_EPOCH":66907,"BSTAR":0.00088755185,"MEAN_MOTION_DOT":0.00025373,"MEAN_MOTION_DDOT":0}]
